{
  "norad_id": 67039,
  "name": "STARLINK-35705",
  "history": [
    {
      "epoch": "2026-03-28T20:46:30.903744",
      "apogee_km": 484.0473506157796,
      "perigee_km": 481.9404345412868,
      "latitude_deg": 42.76297182616594,
      "longitude_deg": -112.99899584008381,
      "semi_major_axis_km": 6861.130892578533,
      "eccentricity": 0.00015354,
      "inclination_deg": 43.0021,
      "raan_deg": 289.6272,
      "arg_perigee_deg": 269.46,
      "mean_anomaly_deg": 90.6076,
      "mean_motion_rev_day": 15.27598436
    }
  ]
}